start=new Date('2021-08-22T00:00:00.000Z').valueOf();
sats=[{"REV_AT_EPOCH":"2660","ELEMENT_SET_NO":"999","ARG_OF_PERICENTER":"56.4897","LAUNCH_DATE":"2021-03-04","COUNTRY_CODE":"US","OBJECT_ID":"2021-017T","MEAN_MOTION_DDOT":"0.0000000000000","RCS_SIZE":"LARGE","EPHEMERIS_TYPE":"0","CLASSIFICATION_TYPE":"U","APOAPSIS":"548.734","MEAN_MOTION_DOT":"-0.00000889","SEMIMAJOR_AXIS":"6925.354","TLE_LINE2":"2 47739  53.0561 121.2582 0002188  56.4897 303.6301 15.06398193 26606","GP_ID":"183218454","REF_FRAME":"TEME","FILE":"3101140","DECAY_DATE":null,"RA_OF_ASC_NODE":"121.2582","MEAN_ELEMENT_THEORY":"SGP4","PERIAPSIS":"545.704","PERIOD":"95.592","CENTER_NAME":"EARTH","TLE_LINE1":"1 47739U 21017T   21234.10820411 -.00000889  00000-0 -40780-4 0  9990","MEAN_MOTION":"15.06398193","OBJECT_NAME":"STARLINK-2150","EPOCH":"2021-08-22T02:35:48.835104","NORAD_CAT_ID":"47739","ECCENTRICITY":"0.00021880","OBJECT_TYPE":"PAYLOAD","INCLINATION":"53.0561","TIME_SYSTEM":"UTC","BSTAR":"-0.00004078000000","MEAN_ANOMALY":"303.6301","SITE":"AFETR"},{"REV_AT_EPOCH":"2745","ELEMENT_SET_NO":"999","ARG_OF_PERICENTER":"65.7984","LAUNCH_DATE":"2021-03-04","COUNTRY_CODE":"US","OBJECT_ID":"2021-017U","MEAN_MOTION_DDOT":"0.0000000000000","RCS_SIZE":"LARGE","EPHEMERIS_TYPE":"0","CLASSIFICATION_TYPE":"U","APOAPSIS":"548.699","MEAN_MOTION_DOT":"0.00000639","SEMIMAJOR_AXIS":"6925.334","TLE_LINE2":"2 47740  53.0558 107.2390 0002166  65.7984 294.3231 15.06404738 27456","GP_ID":"183213437","REF_FRAME":"TEME","DECAY_DATE":null,"FILE":"3101032","RA_OF_ASC_NODE":"107.2390","MEAN_ELEMENT_THEORY":"SGP4","PERIAPSIS":"545.699","PERIOD":"95.592","CENTER_NAME":"EARTH","OBJECT_NAME":"STARLINK-2152","TLE_LINE1":"1 47740U 21017U   21233.89026708  .00000639  00000-0  61803-4 0  9994","MEAN_MOTION":"15.06404738","EPOCH":"2021-08-21T21:21:59.075712","NORAD_CAT_ID":"47740","ECCENTRICITY":"0.00021660","OBJECT_TYPE":"PAYLOAD","INCLINATION":"53.0558","TIME_SYSTEM":"UTC","BSTAR":"0.00006180300000","MEAN_ANOMALY":"294.3231","SITE":"AFETR"},{"BSTAR":"-0.00003522100000","MEAN_ANOMALY":"290.8006","SITE":"AFETR","INCLINATION":"53.0559","TIME_SYSTEM":"UTC","ECCENTRICITY":"0.00018640","OBJECT_TYPE":"PAYLOAD","NORAD_CAT_ID":"47741","EPOCH":"2021-08-21T21:43:14.204064","TLE_LINE1":"1 47741U 21017V   21233.90502551 -.00000806  00000-0 -35221-4 0  9995","MEAN_MOTION":"15.06398670","OBJECT_NAME":"STARLINK-2154","CENTER_NAME":"EARTH","RA_OF_ASC_NODE":"107.1691","MEAN_ELEMENT_THEORY":"SGP4","PERIAPSIS":"545.927","PERIOD":"95.592","REF_FRAME":"TEME","DECAY_DATE":null,"FILE":"3101128","TLE_LINE2":"2 47741  53.0559 107.1691 0001864  69.3182 290.8006 15.06398670 26788","GP_ID":"183217808","APOAPSIS":"548.509","MEAN_MOTION_DOT":"-0.00000806","SEMIMAJOR_AXIS":"6925.353","EPHEMERIS_TYPE":"0","CLASSIFICATION_TYPE":"U","OBJECT_ID":"2021-017V","MEAN_MOTION_DDOT":"0.0000000000000","RCS_SIZE":"LARGE","ARG_OF_PERICENTER":"69.3182","LAUNCH_DATE":"2021-03-04","COUNTRY_CODE":"US","ELEMENT_SET_NO":"999","REV_AT_EPOCH":"2678"},{"NORAD_CAT_ID":"47742","OBJECT_TYPE":"PAYLOAD","ECCENTRICITY":"0.00021420","INCLINATION":"53.0571","TIME_SYSTEM":"UTC","BSTAR":"-0.00004742500000","SITE":"AFETR","MEAN_ANOMALY":"274.7585","DECAY_DATE":null,"FILE":"3101032","REF_FRAME":"TEME","PERIAPSIS":"545.752","PERIOD":"95.593","RA_OF_ASC_NODE":"97.1067","MEAN_ELEMENT_THEORY":"SGP4","CENTER_NAME":"EARTH","MEAN_MOTION":"15.06392758","TLE_LINE1":"1 47742U 21017W   21233.91700071 -.00000988  00000-0 -47425-4 0  9994","OBJECT_NAME":"STARLINK-2156","EPOCH":"2021-08-21T22:00:28.861344","RCS_SIZE":"LARGE","OBJECT_ID":"2021-017W","MEAN_MOTION_DDOT":"0.0000000000000","EPHEMERIS_TYPE":"0","CLASSIFICATION_TYPE":"U","MEAN_MOTION_DOT":"-0.00000988","SEMIMAJOR_AXIS":"6925.371","APOAPSIS":"548.719","GP_ID":"183214936","TLE_LINE2":"2 47742  53.0571  97.1067 0002142  85.3648 274.7585 15.06392758 27609","REV_AT_EPOCH":"2760","ELEMENT_SET_NO":"999","LAUNCH_DATE":"2021-03-04","COUNTRY_CODE":"US","ARG_OF_PERICENTER":"85.3648"},{"CLASSIFICATION_TYPE":"U","EPHEMERIS_TYPE":"0","RCS_SIZE":"LARGE","MEAN_MOTION_DDOT":"0.0000000000000","OBJECT_ID":"2021-017X","GP_ID":"183216575","TLE_LINE2":"2 47743  53.0557  96.3882 0002140  84.1024 276.0209 15.06395842 26944","SEMIMAJOR_AXIS":"6925.361","MEAN_MOTION_DOT":"0.00000805","APOAPSIS":"548.708","REV_AT_EPOCH":"2694","COUNTRY_CODE":"US","LAUNCH_DATE":"2021-03-04","ARG_OF_PERICENTER":"84.1024","ELEMENT_SET_NO":"999","OBJECT_TYPE":"PAYLOAD","ECCENTRICITY":"0.00021400","NORAD_CAT_ID":"47743","MEAN_ANOMALY":"276.0209","SITE":"AFETR","BSTAR":"0.00007297900000","TIME_SYSTEM":"UTC","INCLINATION":"53.0557","PERIOD":"95.592","PERIAPSIS":"545.744","MEAN_ELEMENT_THEORY":"SGP4","RA_OF_ASC_NODE":"96.3882","DECAY_DATE":null,"FILE":"3101073","REF_FRAME":"TEME","TLE_LINE1":"1 47743U 21017X   21234.07550118  .00000805  00000-0  72979-4 0  9996","EPOCH":"2021-08-22T01:48:43.301952","MEAN_MOTION":"15.06395842","OBJECT_NAME":"STARLINK-2157","CENTER_NAME":"EARTH"},{"NORAD_CAT_ID":"47744","OBJECT_TYPE":"PAYLOAD","ECCENTRICITY":"0.00020510","INCLINATION":"53.0567","TIME_SYSTEM":"UTC","BSTAR":"0.00005527400000","SITE":"AFETR","MEAN_ANOMALY":"279.0164","FILE":"3101032","DECAY_DATE":null,"REF_FRAME":"TEME","PERIAPSIS":"545.812","PERIOD":"95.593","RA_OF_ASC_NODE":"97.0877","MEAN_ELEMENT_THEORY":"SGP4","CENTER_NAME":"EARTH","MEAN_MOTION":"15.06393705","TLE_LINE1":"1 47744U 21017Y   21233.92068661  .00000542  00000-0  55274-4 0  9994","OBJECT_NAME":"STARLINK-2158","EPOCH":"2021-08-21T22:05:47.323104","RCS_SIZE":"LARGE","OBJECT_ID":"2021-017Y","MEAN_MOTION_DDOT":"0.0000000000000","EPHEMERIS_TYPE":"0","CLASSIFICATION_TYPE":"U","MEAN_MOTION_DOT":"0.00000542","SEMIMAJOR_AXIS":"6925.368","APOAPSIS":"548.653","GP_ID":"183213938","TLE_LINE2":"2 47744  53.0567  97.0877 0002051  81.1057 279.0164 15.06393705 27605","REV_AT_EPOCH":"2760","ELEMENT_SET_NO":"999","LAUNCH_DATE":"2021-03-04","COUNTRY_CODE":"US","ARG_OF_PERICENTER":"81.1057"},{"TLE_LINE2":"2 47745  53.0566 106.6742 0002208  71.6093 288.5135 15.06399295 26793","GP_ID":"183217825","APOAPSIS":"548.745","SEMIMAJOR_AXIS":"6925.351","MEAN_MOTION_DOT":"0.00000446","CLASSIFICATION_TYPE":"U","EPHEMERIS_TYPE":"0","MEAN_MOTION_DDOT":"0.0000000000000","OBJECT_ID":"2021-017Z","RCS_SIZE":"LARGE","ARG_OF_PERICENTER":"71.6093","COUNTRY_CODE":"US","LAUNCH_DATE":"2021-03-04","ELEMENT_SET_NO":"999","REV_AT_EPOCH":"2679","SITE":"AFETR","MEAN_ANOMALY":"288.5135","BSTAR":"0.00004887400000","TIME_SYSTEM":"UTC","INCLINATION":"53.0566","ECCENTRICITY":"0.00022080","OBJECT_TYPE":"PAYLOAD","NORAD_CAT_ID":"47745","TLE_LINE1":"1 47745U 21017Z   21234.01559603  .00000446  00000-0  48874-4 0  9998","OBJECT_NAME":"STARLINK-2159","MEAN_MOTION":"15.06399295","EPOCH":"2021-08-22T00:22:27.496992","CENTER_NAME":"EARTH","MEAN_ELEMENT_THEORY":"SGP4","RA_OF_ASC_NODE":"106.6742","PERIOD":"95.592","PERIAPSIS":"545.687","REF_FRAME":"TEME","DECAY_DATE":null,"FILE":"3101129"},{"REV_AT_EPOCH":"2740","ELEMENT_SET_NO":"999","LAUNCH_DATE":"2021-03-04","COUNTRY_CODE":"US","ARG_OF_PERICENTER":"72.2526","RCS_SIZE":"LARGE","OBJECT_ID":"2021-017AA","MEAN_MOTION_DDOT":"0.0000000000000","EPHEMERIS_TYPE":"0","CLASSIFICATION_TYPE":"U","MEAN_MOTION_DOT":"0.00000486","SEMIMAJOR_AXIS":"6925.371","APOAPSIS":"548.520","GP_ID":"183214436","TLE_LINE2":"2 47746  53.0548 106.9919 0001854  72.2526 287.8665 15.06392705 27405","FILE":"3101032","DECAY_DATE":null,"REF_FRAME":"TEME","PERIAPSIS":"545.952","PERIOD":"95.593","RA_OF_ASC_NODE":"106.9919","MEAN_ELEMENT_THEORY":"SGP4","CENTER_NAME":"EARTH","EPOCH":"2021-08-21T22:36:18.257472","TLE_LINE1":"1 47746U 21017AA  21233.94187798  .00000486  00000-0  51559-4 0  9990","MEAN_MOTION":"15.06392705","OBJECT_NAME":"STARLINK-2160","NORAD_CAT_ID":"47746","OBJECT_TYPE":"PAYLOAD","ECCENTRICITY":"0.00018540","INCLINATION":"53.0548","TIME_SYSTEM":"UTC","BSTAR":"0.00005155900000","SITE":"AFETR","MEAN_ANOMALY":"287.8665"},{"BSTAR":"0.00007206800000","MEAN_ANOMALY":"270.5475","SITE":"AFETR","INCLINATION":"53.0568","TIME_SYSTEM":"UTC","ECCENTRICITY":"0.00021690","OBJECT_TYPE":"PAYLOAD","NORAD_CAT_ID":"47747","EPOCH":"2021-08-21T20:56:46.845888","TLE_LINE1":"1 47747U 21017AB  21233.87276442  .00000792  00000-0  72068-4 0  9996","MEAN_MOTION":"15.06401822","OBJECT_NAME":"STARLINK-2161","CENTER_NAME":"EARTH","RA_OF_ASC_NODE":"97.3035","MEAN_ELEMENT_THEORY":"SGP4","PERIAPSIS":"545.706","PERIOD":"95.592","REF_FRAME":"TEME","FILE":"3101032","DECAY_DATE":null,"TLE_LINE2":"2 47747  53.0568  97.3035 0002169  89.5763 270.5475 15.06401822 27571","GP_ID":"183215174","APOAPSIS":"548.710","MEAN_MOTION_DOT":"0.00000792","SEMIMAJOR_AXIS":"6925.343","EPHEMERIS_TYPE":"0","CLASSIFICATION_TYPE":"U","OBJECT_ID":"2021-017AB","MEAN_MOTION_DDOT":"0.0000000000000","RCS_SIZE":"LARGE","ARG_OF_PERICENTER":"89.5763","LAUNCH_DATE":"2021-03-04","COUNTRY_CODE":"US","ELEMENT_SET_NO":"999","REV_AT_EPOCH":"2757"},{"GP_ID":"183218342","TLE_LINE2":"2 47748  53.0571  96.4435 0002192  91.2447 268.8793 15.06392371 26946","MEAN_MOTION_DOT":"-0.00000502","SEMIMAJOR_AXIS":"6925.372","APOAPSIS":"548.755","EPHEMERIS_TYPE":"0","CLASSIFICATION_TYPE":"U","RCS_SIZE":"LARGE","OBJECT_ID":"2021-017AC","MEAN_MOTION_DDOT":"0.0000000000000","LAUNCH_DATE":"2021-03-04","COUNTRY_CODE":"US","ARG_OF_PERICENTER":"91.2447","ELEMENT_SET_NO":"999","REV_AT_EPOCH":"2694","BSTAR":"-0.00001477900000","MEAN_ANOMALY":"268.8793","SITE":"AFETR","INCLINATION":"53.0571","TIME_SYSTEM":"UTC","OBJECT_TYPE":"PAYLOAD","ECCENTRICITY":"0.00021920","NORAD_CAT_ID":"47748","EPOCH":"2021-08-22T01:32:47.810400","TLE_LINE1":"1 47748U 21017AC  21234.06444225 -.00000502  00000-0 -14779-4 0  9991","MEAN_MOTION":"15.06392371","OBJECT_NAME":"STARLINK-2162","CENTER_NAME":"EARTH","PERIAPSIS":"545.719","PERIOD":"95.593","RA_OF_ASC_NODE":"96.4435","MEAN_ELEMENT_THEORY":"SGP4","DECAY_DATE":null,"FILE":"3101130","REF_FRAME":"TEME"}];
